BEIDOU-2 G4 (C04)       
1 37210U 10057A   24137.41054435 -.00000107  00000+0  00000+0 0  9996
2 37210   1.7708  68.3395 0003084 189.9882 284.1653  1.00272554 49651
BEIDOU-2 IGSO-2 (C07)   
1 37256U 10068A   24137.32850064 -.00000215  00000+0  00000+0 0  9990
2 37256  48.9394 281.2057 0034224 208.5626 330.1371  1.00260559 49156
BEIDOU-2 IGSO-3 (C08)   
1 37384U 11013A   24136.68437010 -.00000203  00000+0  00000+0 0  9990
2 37384  61.3078  47.4242 0025726 177.7700   3.3435  1.00267176 48017
BEIDOU-2 IGSO-4 (C09)   
1 37763U 11038A   24136.65384292 -.00000011  00000+0  00000+0 0  9995
2 37763  54.5529 172.4621 0124732 228.7802 163.7440  1.00266286 47006
BEIDOU-2 IGSO-5 (C10)   
1 37948U 11073A   24136.72063634 -.00000155  00000+0  00000+0 0  9990
2 37948  49.0720 280.8970 0096468 218.8866  86.9357  1.00259291 45489
BEIDOU-2 G5 (C05)       
1 38091U 12008A   24137.53344671  .00000062  00000+0  00000+0 0  9998
2 38091   2.0006  70.6050 0007765 268.5765 146.2595  1.00273963 44846
BEIDOU-2 M3 (C11)       
1 38250U 12018A   24136.71548203 -.00000078  00000+0  00000+0 0  9990
2 38250  56.3597 330.4207 0020576 264.9326  94.8483  1.86231446 81747
BEIDOU-2 M4 (C12)       
1 38251U 12018B   24136.10886331 -.00000079  00000+0  00000+0 0  9992
2 38251  56.2677 329.7149 0011507 269.2416  90.6406  1.86232167 81733
BEIDOU-2 M6 (C14)       
1 38775U 12050B   24135.28133059 -.00000002  00000+0  00000+0 0  9995
2 38775  55.8882  88.2956 0014675 334.6341  25.2623  1.86231209 79089
BEIDOU-2 G6 (C02)       
1 38953U 12059A   24137.53860292 -.00000170  00000+0  00000+0 0  9994
2 38953   2.4807  80.6940 0010584 313.1599 118.7853  1.00269568 42272
BEIDOU-3S IGSO-1S (C31) 
1 40549U 15019A   24136.28495545 -.00000160  00000+0  00000+0 0  9992
2 40549  50.6348 304.5744 0037307 191.1666 293.1759  1.00257075 33422
BEIDOU-3S M2S (C58)     
1 40748U 15037A   24135.23549574 -.00000082  00000+0  00000+0 0  9992
2 40748  55.5010 328.1861 0007783 254.9872 104.9369  1.86233324 59897
BEIDOU-3S M1S (C57)     
1 40749U 15037B   24136.04279609 -.00000080  00000+0  00000+0 0  9990
2 40749  55.5038 328.1457 0004557   3.3395 356.6754  1.86233116 59917
BEIDOU-3S IGSO-2S (C56) 
1 40938U 15053A   24137.32615101 -.00000162  00000+0  00000+0 0  9992
2 40938  50.4093 267.7747 0051560 188.6847 351.8946  1.00270054 31713
BEIDOU-2 IGSO-6 (C13)   
1 41434U 16021A   24136.55529896 -.00000178  00000+0  00000+0 0  9996
2 41434  59.1322  45.6776 0048120 224.3441 259.7141  1.00277634 29831
BEIDOU-2 G7 (C03)       
1 41586U 16037A   24137.54382428 -.00000349  00000+0  00000+0 0  9999
2 41586   1.8323  69.2592 0008639 327.4131 144.3633  1.00268228 29142
BEIDOU-3 M1 (C19)       
1 43001U 17069A   24137.19522081  .00000001  00000+0  00000+0 0  9995
2 43001  56.0402  88.3236 0012007 305.7578  54.1018  1.86231633 44417
BEIDOU-3 M2 (C20)       
1 43002U 17069B   24136.05847524  .00000001  00000+0  00000+0 0  9992
2 43002  56.0386  88.3978 0009955 325.4111  34.4943  1.86231126 44383
BEIDOU-3 M7 (C27)       
1 43107U 18003A   24136.34489484 -.00000081  00000+0  00000+0 0  9995
2 43107  54.9583 328.7537 0005124  69.7457 290.3223  1.86232610 43159
BEIDOU-3 M8 (C28)       
1 43108U 18003B   24134.13723309 -.00000087  00000+0  00000+0 0  9994
2 43108  54.9530 328.8155 0002368 266.8659  93.1163  1.86231011 43112
BEIDOU-3 M4 (C22)       
1 43207U 18018A   24136.72633956  .00000001  00000+0  00000+0 0  9990
2 43207  55.9988  88.4296 0007357 346.5572  13.3940  1.86231555 42544
BEIDOU-3 M3 (C21)       
1 43208U 18018B   24136.79291217  .00000001  00000+0  00000+0 0  9998
2 43208  55.9984  88.4318 0009829 316.5355  43.3580  1.86231497 42546
BEIDOU-3 M9 (C29)       
1 43245U 18029A   24137.01448455 -.00000078  00000+0  00000+0 0  9990
2 43245  54.8424 326.4412 0000648  70.0104 290.0076  1.86232924 41702
BEIDOU-3 M10 (C30)      
1 43246U 18029B   24136.94420330 -.00000078  00000+0  00000+0 0  9994
2 43246  54.8396 326.4720 0004319  20.8488 339.1797  1.86233080 41697
BEIDOU-2 IGSO-7 (C16)   
1 43539U 18057A   24136.60669828 -.00000079  00000+0  00000+0 0  9991
2 43539  55.1364 169.6519 0074848 233.3805 161.6334  1.00263261 21493
BEIDOU-3 M5 (C23)       
1 43581U 18062A   24133.94503888 -.00000012  00000+0  00000+0 0  9998
2 43581  54.1353 208.3346 0004125 273.7446  86.2733  1.86228820 39384
BEIDOU-3 M6 (C24)       
1 43582U 18062B   24135.95887150 -.00000020  00000+0  00000+0 0  9998
2 43582  54.1346 208.2556 0004151  11.2109 348.8594  1.86229637 39423
BEIDOU-3 M12 (C26)      
1 43602U 18067A   24135.89257899 -.00000018  00000+0  00000+0 0  9997
2 43602  54.2247 206.9362 0006751  21.5911 338.4997  1.86231803 38902
BEIDOU-3 M11 (C25)      
1 43603U 18067B   24136.02650545 -.00000018  00000+0  00000+0 0  9999
2 43603  54.2219 206.8970 0003634   7.0183 353.0491  1.86231639 38935
BEIDOU-3 M13 (C32)      
1 43622U 18072A   24137.06103869  .00000000  00000+0  00000+0 0  9993
2 43622  55.9697  87.9508 0008473 304.8901  55.0015  1.86231584 38469
BEIDOU-3 M14 (C33)      
1 43623U 18072B   24136.92649361  .00000000  00000+0  00000+0 0  9990
2 43623  55.9713  87.9483 0006494 326.8273  33.1031  1.86231572 38459
BEIDOU-3 M16 (C35)      
1 43647U 18078A   24137.08943613 -.00000078  00000+0  00000+0 0  9993
2 43647  54.7390 326.5403 0007686  23.1937 336.8522  1.86232426 37967
BEIDOU-3 M15 (C34)      
1 43648U 18078B   24136.14471614 -.00000080  00000+0  00000+0 0  9990
2 43648  54.7354 326.5760 0004863  36.3516 323.6912  1.86232396 37960
BEIDOU-3 G1 (C59)       
1 43683U 18085A   24137.54967525 -.00000272  00000+0  00000+0 0  9996
2 43683   2.1150 110.7853 0003837 343.8283 118.0475  1.00274117 20429
BEIDOU-3 M17 (C36)      
1 43706U 18093A   24136.83152860 -.00000016  00000+0  00000+0 0  9996
2 43706  54.2177 208.1724 0009259 279.6196  80.3368  1.86228527 37343
BEIDOU-3 M18 (C37)      
1 43707U 18093B   24135.08627218 -.00000019  00000+0  00000+0 0  9990
2 43707  54.2187 208.2234 0007149 307.6773  52.3203  1.86229941 37305
BEIDOU-3 IGSO-1 (C38)   
1 44204U 19023A   24136.28641378 -.00000233  00000+0  00000+0 0  9991
2 44204  57.5965  45.5676 0018858 212.9675 195.9491  1.00259629 18694
BEIDOU-2 G8 (C01)       
1 44231U 19027A   24137.56577067 -.00000243  00000+0  00000+0 0  9991
2 44231   1.8720  73.7068 0002485 171.1693 338.0647  1.00275124 18442
BEIDOU-3 IGSO-2 (C39)   
1 44337U 19035A   24137.47376619 -.00000070  00000+0  00000+0 0  9995
2 44337  55.1722 165.5455 0033044 209.3728 147.0845  1.00251323 18028
BEIDOU-3 M24 (C46)      
1 44542U 19061A   24136.76693184 -.00000016  00000+0  00000+0 0  9992
2 44542  54.4453 208.4547 0007288 348.5489  11.4952  1.86231291 31595
BEIDOU-3 M23 (C45)      
1 44543U 19061B   24137.39589112 -.00000011  00000+0  00000+0 0  9993
2 44543  54.4436 208.4023 0004675 328.7920   5.1645  1.86231772 31608
BEIDOU-3 IGSO-3 (C40)   
1 44709U 19073A   24136.82412175 -.00000193  00000+0  00000+0 0  9992
2 44709  56.1067 289.0656 0037893 180.3408 179.5831  1.00259369 16816
BEIDOU-3 M22 (C44)      
1 44793U 19078A   24136.07577042 -.00000080  00000+0  00000+0 0  9997
2 44793  54.5873 326.5115 0006749  31.0835 328.9659  1.86232304 30431
BEIDOU-3 M21 (C43)      
1 44794U 19078B   24135.66869428 -.00000081  00000+0  00000+0 0  9995
2 44794  54.5613 326.5023 0004607  29.1196 330.9148  1.86232776 30430
BEIDOU-3 M19 (C41)      
1 44864U 19090A   24136.99335255  .00000000  00000+0  00000+0 0  9990
2 44864  55.9041  88.1257 0019106 284.7283  76.3942  1.86231888 30047
BEIDOU-3 M20 (C42)      
1 44865U 19090B   24137.39381363  .00000000  00000+0  00000+0 0  9997
2 44865  55.9061  88.1456 0017144 297.1815  62.1737  1.86231828 30027
BEIDOU-3 G2 (C60)       
1 45344U 20017A   24137.39459685 -.00000138  00000+0  00000+0 0  9997
2 45344   2.2793  28.3912 0000614  31.6915  36.5959  1.00272266 15623
BEIDOU-3 G3 (C61)       
1 45807U 20040A   24137.54382428 -.00000351  00000+0  00000+0 0  9991
2 45807   0.7281  38.0457 0005296 291.8841 211.1450  1.00274765 14434
BEIDOU-3 G4             
1 56564U 23066A   24137.39632769 -.00000110  00000+0  00000+0 0  9996
2 56564   2.2017 288.2288 0004714 192.7640  56.3600  1.00272134  3758
BEIDOU-3 M25            
1 58654U 23207A   24136.28829971 -.00000001  00000+0  00000+0 0  9994
2 58654  55.0858  88.1884 0004380 300.0169  59.9102  1.86232387  2639
BEIDOU-3 M26            
1 58655U 23207B   24137.16109663 -.00000001  00000+0  00000+0 0  9992
2 58655  55.0885  88.1440 0004801 282.4590  77.4586  1.86231995  2632
